KUIPER-00104            
1 65142U 25171L   25265.55992899  .00058628  00000+0  16320-2 0  9992
2 65142  51.8771 201.9457 0002855 294.9165  65.1524 15.36247784  7707
KUIPER-00105            
1 65143U 25171M   25265.54506385  .00045525  00000+0  12447-2 0  9991
2 65143  51.8767 201.8436 0004016 261.9261  98.1270 15.36916949  7712
KUIPER-00106            
1 65144U 25171N   25265.91668981  .00019832  00000+0  71220-3 0  9991
2 65144  51.8768 200.4296 0005042 259.3325 151.6341 15.28649726  4140
KUIPER-00107            
1 65145U 25171P   25265.55679069  .00053778  00000+0  14903-2 0  9992
2 65145  51.8763 201.9246 0003676 287.9355  72.1231 15.36425035  7713
KUIPER-00108            
1 65146U 25171Q   25265.24300740  .00049396  00000+0  13901-2 0  9994
2 65146  51.8782 203.5712 0004984 303.3665  56.6844 15.35977654  7660
KUIPER-00109            
1 65147U 25171R   25265.55193973  .00060405  00000+0  16590-2 0  9998
2 65147  51.8775 201.8871 0004073 276.4763  83.5759 15.36650446  7705
KUIPER-00110            
1 65148U 25171S   25265.91668981 -.00325826  00000+0 -10464-1 0  9991
2 65148  51.8788 200.1811 0003624 291.7119 254.8442 15.33103871  5175
KUIPER-00111            
1 65149U 25171T   25265.91668981 -.01217371  00000+0 -53478-1 0  9990
2 65149  51.8820 200.8269 0004514 303.2517 302.7959 15.24289603  5924
